{"type": "FeatureCollection", "features": [ {"type": "Feature", "properties": {"norad_id": 40534, "name": "GPS BIIF-9  (PRN 26)", "group": "gps-ops", "lat": 38.707527407784035, "lon": -111.23150467253718, "alt_km": 19899.986700068308, "timestamp": "2025-12-12T03:50:52.676142+00:00", "meta": {"OBJECT_NAME": "GPS BIIF-9  (PRN 26)", "OBJECT_ID": "2015-013A", "EPOCH": "2025-12-11T14:12:34.875648", "MEAN_MOTION": 2.00562655, "ECCENTRICITY": 0.01070076, "INCLINATION": 53.1979, "RA_OF_ASC_NODE": 211.9377, "ARG_OF_PERICENTER": 38.4526, "MEAN_ANOMALY": 322.3807, "EPHEMERIS_TYPE": 0, "CLASSIFICATION_TYPE": "U", "NORAD_CAT_ID": 40534, "ELEMENT_SET_NO": 999, "REV_AT_EPOCH": 7806, "BSTAR": 0, "MEAN_MOTION_DOT": 2.2e-07, "MEAN_MOTION_DDOT": 0}, "tle": {"line1": "1 40534U 15013A   25345.59207032  .00000022  00000+0  00000+0 0  9995", "line2": "2 40534  53.1979 211.9377 0107007  38.4526 322.3807  2.00562655 78062"}}, "geometry": {"type": "Point", "coordinates": [-111.23150467253718, 38.707527407784035]}}, {"type": "Feature", "properties": {"norad_id": 40730, "name": "GPS BIIF-10 (PRN 08)", "group": "gps-ops", "lat": -48.18177089019126, "lon": -139.08485946004564, "alt_km": 20202.51010835473, "timestamp": "2025-12-12T03:50:52.676154+00:00", "meta": {"OBJECT_NAME": "GPS BIIF-10 (PRN 08)", "OBJECT_ID": "2015-033A", "EPOCH": "2025-12-10T18:08:59.885952", "MEAN_MOTION": 2.00565667, "ECCENTRICITY": 0.01108361, "INCLINATION": 54.1324, "RA_OF_ASC_NODE": 274.8545, "ARG_OF_PERICENTER": 26.7633, "MEAN_ANOMALY": 333.8214, "EPHEMERIS_TYPE": 0, "CLASSIFICATION_TYPE": "U", "NORAD_CAT_ID": 40730, "ELEMENT_SET_NO": 999, "REV_AT_EPOCH": 7621, "BSTAR": 0, "MEAN_MOTION_DOT": -6.3e-07, "MEAN_MOTION_DDOT": 0}, "tle": {"line1": "1 40730U 15033A   25344.75624868 -.00000063  00000+0  00000+0 0  9998", "line2": "2 40730  54.1324 274.8545 0110836  26.7633 333.8214  2.00565667 76213"}}, "geometry": {"type": "Point", "coordinates": [-139.08485946004564, -48.18177089019126]}}, {"type": "Feature", "properties": {"norad_id": 41019, "name": "GPS BIIF-11 (PRN 10)", "group": "gps-ops", "lat": -52.083819016253756, "lon": -84.93296489481145, "alt_km": 19911.207111210366, "timestamp": "2025-12-12T03:50:52.676167+00:00", "meta": {"OBJECT_NAME": "GPS BIIF-11 (PRN 10)", "OBJECT_ID": "2015-062A", "EPOCH": "2025-12-11T07:32:26.435904", "MEAN_MOTION": 2.00567124, "ECCENTRICITY": 0.01107874, "INCLINATION": 56.8311, "RA_OF_ASC_NODE": 38.0574, "ARG_OF_PERICENTER": 229.9047, "MEAN_ANOMALY": 129.1688, "EPHEMERIS_TYPE": 0, "CLASSIFICATION_TYPE": "U", "NORAD_CAT_ID": 41019, "ELEMENT_SET_NO": 999, "REV_AT_EPOCH": 7406, "BSTAR": 0, "MEAN_MOTION_DOT": -9.3e-07, "MEAN_MOTION_DDOT": 0}, "tle": {"line1": "1 41019U 15062A   25345.31419486 -.00000093  00000+0  00000+0 0  9995", "line2": "2 41019  56.8311  38.0574 0110787 229.9047 129.1688  2.00567124 74064"}}, "geometry": {"type": "Point", "coordinates": [-84.93296489481145, -52.083819016253756]}}, {"type": "Feature", "properties": {"norad_id": 41328, "name": "GPS BIIF-12 (PRN 32)", "group": "gps-ops", "lat": -7.928373870054113, "lon": -77.61646157047797, "alt_km": 20038.268263798243, "timestamp": "2025-12-12T03:50:52.676189+00:00", "meta": {"OBJECT_NAME": "GPS BIIF-12 (PRN 32)", "OBJECT_ID": "2016-007A", "EPOCH": "2025-12-10T21:33:15.579936", "MEAN_MOTION": 2.00560768, "ECCENTRICITY": 0.0092092, "INCLINATION": 55.4051, "RA_OF_ASC_NODE": 96.9301, "ARG_OF_PERICENTER": 243.5329, "MEAN_ANOMALY": 115.5097, "EPHEMERIS_TYPE": 0, "CLASSIFICATION_TYPE": "U", "NORAD_CAT_ID": 41328, "ELEMENT_SET_NO": 999, "REV_AT_EPOCH": 7206, "BSTAR": 0, "MEAN_MOTION_DOT": 1e-08, "MEAN_MOTION_DDOT": 0}, "tle": {"line1": "1 41328U 16007A   25344.89809699  .00000001  00000+0  00000+0 0  9997", "line2": "2 41328  55.4051  96.9301 0092092 243.5329 115.5097  2.00560768 72065"}}, "geometry": {"type": "Point", "coordinates": [-77.61646157047797, -7.928373870054113]}}, {"type": "Feature", "properties": {"norad_id": 43873, "name": "GPS BIII-1  (PRN 04)", "group": "gps-ops", "lat": 55.221880648579805, "lon": -179.73929846233327, "alt_km": 20210.503663508487, "timestamp": "2025-12-12T03:50:52.676209+00:00", "meta": {"OBJECT_NAME": "GPS BIII-1  (PRN 04)", "OBJECT_ID": "2018-109A", "EPOCH": "2025-12-11T13:23:14.841888", "MEAN_MOTION": 2.00553563, "ECCENTRICITY": 0.00372884, "INCLINATION": 55.5667, "RA_OF_ASC_NODE": 99.5933, "ARG_OF_PERICENTER": 194.9209, "MEAN_ANOMALY": 175.1233, "EPHEMERIS_TYPE": 0, "CLASSIFICATION_TYPE": "U", "NORAD_CAT_ID": 43873, "ELEMENT_SET_NO": 999, "REV_AT_EPOCH": 5131, "BSTAR": 0, "MEAN_MOTION_DOT": 4e-08, "MEAN_MOTION_DDOT": 0}, "tle": {"line1": "1 43873U 18109A   25345.55781067  .00000004  00000+0  00000+0 0  9994", "line2": "2 43873  55.5667  99.5933 0037288 194.9209 175.1233  2.00553563 51312"}}, "geometry": {"type": "Point", "coordinates": [-179.73929846233327, 55.221880648579805]}}, {"type": "Feature", "properties": {"norad_id": 44506, "name": "GPS BIII-2  (PRN 18)", "group": "gps-ops", "lat": -14.466863543048444, "lon": -31.563954723297474, "alt_km": 20307.50541747798, "timestamp": "2025-12-12T03:50:52.676221+00:00", "meta": {"OBJECT_NAME": "GPS BIII-2  (PRN 18)", "OBJECT_ID": "2019-056A", "EPOCH": "2025-12-11T10:12:28.532736", "MEAN_MOTION": 2.00566237, "ECCENTRICITY": 0.00577517, "INCLINATION": 55.7218, "RA_OF_ASC_NODE": 338.6041, "ARG_OF_PERICENTER": 198.4885, "MEAN_ANOMALY": 332.8185, "EPHEMERIS_TYPE": 0, "CLASSIFICATION_TYPE": "U", "NORAD_CAT_ID": 44506, "ELEMENT_SET_NO": 999, "REV_AT_EPOCH": 4630, "BSTAR": 0, "MEAN_MOTION_DOT": -8.7e-07, "MEAN_MOTION_DDOT": 0}, "tle": {"line1": "1 44506U 19056A   25345.42533024 -.00000087  00000+0  00000+0 0  9996", "line2": "2 44506  55.7218 338.6041 0057751 198.4885 332.8185  2.00566237 46306"}}, "geometry": {"type": "Point", "coordinates": [-31.563954723297474, -14.466863543048444]}}, {"type": "Feature", "properties": {"norad_id": 45854, "name": "GPS BIII-3  (PRN 23)", "group": "gps-ops", "lat": -53.02769827753663, "lon": -25.125405346369256, "alt_km": 20168.45045803235, "timestamp": "2025-12-12T03:50:52.676232+00:00", "meta": {"OBJECT_NAME": "GPS BIII-3  (PRN 23)", "OBJECT_ID": "2020-041A", "EPOCH": "2025-12-10T06:22:51.669120", "MEAN_MOTION": 2.00561869, "ECCENTRICITY": 0.0060434, "INCLINATION": 56.5455, "RA_OF_ASC_NODE": 36.2815, "ARG_OF_PERICENTER": 203.3429, "MEAN_ANOMALY": 154.8897, "EPHEMERIS_TYPE": 0, "CLASSIFICATION_TYPE": "U", "NORAD_CAT_ID": 45854, "ELEMENT_SET_NO": 999, "REV_AT_EPOCH": 4024, "BSTAR": 0, "MEAN_MOTION_DOT": -9e-07, "MEAN_MOTION_DDOT": 0}, "tle": {"line1": "1 45854U 20041A   25344.26587580 -.00000090  00000+0  00000+0 0  9990", "line2": "2 45854  56.5455  36.2815 0060434 203.3429 154.8897  2.00561869 40242"}}, "geometry": {"type": "Point", "coordinates": [-25.125405346369256, -53.02769827753663]}}, {"type": "Feature", "properties": {"norad_id": 46826, "name": "GPS BIII-4  (PRN 14)", "group": "gps-ops", "lat": -52.2196531948259, "lon": 107.89261384526455, "alt_km": 20086.316393056386, "timestamp": "2025-12-12T03:50:52.676244+00:00", "meta": {"OBJECT_NAME": "GPS BIII-4  (PRN 14)", "OBJECT_ID": "2020-078A", "EPOCH": "2025-12-11T12:08:25.039104", "MEAN_MOTION": 2.0056681, "ECCENTRICITY": 0.00646308, "INCLINATION": 54.0154, "RA_OF_ASC_NODE": 218.391, "ARG_OF_PERICENTER": 203.3565, "MEAN_ANOMALY": 301.1266, "EPHEMERIS_TYPE": 0, "CLASSIFICATION_TYPE": "U", "NORAD_CAT_ID": 46826, "ELEMENT_SET_NO": 999, "REV_AT_EPOCH": 3774, "BSTAR": 0, "MEAN_MOTION_DOT": 1e-07, "MEAN_MOTION_DDOT": 0}, "tle": {"line1": "1 46826U 20078A   25345.50584536  .00000010  00000+0  00000+0 0  9997", "line2": "2 46826  54.0154 218.3910 0064630 203.3565 301.1266  2.00566810 37742"}}, "geometry": {"type": "Point", "coordinates": [107.89261384526455, -52.2196531948259]}}, {"type": "Feature", "properties": {"norad_id": 48859, "name": "GPS BIII-5  (PRN 11)", "group": "gps-ops", "lat": 54.508095967732764, "lon": 56.659535983178436, "alt_km": 20234.20988079529, "timestamp": "2025-12-12T03:50:52.676256+00:00", "meta": {"OBJECT_NAME": "GPS BIII-5  (PRN 11)", "OBJECT_ID": "2021-054A", "EPOCH": "2025-12-08T04:14:32.423424", "MEAN_MOTION": 2.00553627, "ECCENTRICITY": 0.0024678, "INCLINATION": 55.2581, "RA_OF_ASC_NODE": 340.1367, "ARG_OF_PERICENTER": 233.3994, "MEAN_ANOMALY": 212.8593, "EPHEMERIS_TYPE": 0, "CLASSIFICATION_TYPE": "U", "NORAD_CAT_ID": 48859, "ELEMENT_SET_NO": 999, "REV_AT_EPOCH": 3292, "BSTAR": 0, "MEAN_MOTION_DOT": -8.6e-07, "MEAN_MOTION_DDOT": 0}, "tle": {"line1": "1 48859U 21054A   25342.17676416 -.00000086  00000+0  00000+0 0  9993", "line2": "2 48859  55.2581 340.1367 0024678 233.3994 212.8593  2.00553627 32922"}}, "geometry": {"type": "Point", "coordinates": [56.659535983178436, 54.508095967732764]}}, {"type": "Feature", "properties": {"norad_id": 55268, "name": "GPS BIII-6  (PRN 28)", "group": "gps-ops", "lat": 42.25553412840015, "lon": -63.50116461999524, "alt_km": 20183.702828341902, "timestamp": "2025-12-12T03:50:52.676267+00:00", "meta": {"OBJECT_NAME": "GPS BIII-6  (PRN 28)", "OBJECT_ID": "2023-009A", "EPOCH": "2025-12-10T05:50:57.225696", "MEAN_MOTION": 2.00555847, "ECCENTRICITY": 0.00036975, "INCLINATION": 55.1051, "RA_OF_ASC_NODE": 155.9432, "ARG_OF_PERICENTER": 357.7706, "MEAN_ANOMALY": 183.2285, "EPHEMERIS_TYPE": 0, "CLASSIFICATION_TYPE": "U", "NORAD_CAT_ID": 55268, "ELEMENT_SET_NO": 999, "REV_AT_EPOCH": 2145, "BSTAR": 0, "MEAN_MOTION_DOT": 7.5e-07, "MEAN_MOTION_DDOT": 0}, "tle": {"line1": "1 55268U 23009A   25344.24371789  .00000075  00000+0  00000+0 0  9999", "line2": "2 55268  55.1051 155.9432 0003697 357.7706 183.2285  2.00555847 21451"}}, "geometry": {"type": "Point", "coordinates": [-63.50116461999524, 42.25553412840015]}}]}